ONEWEB-0410             
1 51622U 22012A   26085.37091789  .00000027  00000+0  37040-4 0  9994
2 51622  87.9185  22.2942 0000701  37.9086 322.2095 13.17651310202799
ONEWEB-0411             
1 51623U 22012B   26085.92868099 -.00000621  00000+0 -18152-2 0  9995
2 51623  87.8806  52.6328 0002404  75.2112 284.9282 13.10372292198519
ONEWEB-0415             
1 51624U 22012C   26085.92537816 -.00000564  00000+0 -16530-2 0  9990
2 51624  87.8801  52.6363 0002075  76.7109 283.4250 13.10373606198519
ONEWEB-0416             
1 51625U 22012D   26085.93698063 -.00000509  00000+0 -14950-2 0  9997
2 51625  87.8799  52.6546 0002018  69.4521 290.6823 13.10374309198554
ONEWEB-0422             
1 51626U 22012E   26085.38105008  .00000056  00000+0  11054-3 0  9997
2 51626  87.9184  22.2951 0002293  92.8124 267.3270 13.17650522202904
ONEWEB-0423             
1 51627U 22012F   26085.37429992  .00000069  00000+0  14425-3 0  9997
2 51627  87.9180  22.3057 0001861  82.4571 277.6772 13.17649586202796
ONEWEB-0425             
1 51628U 22012G   26085.94694505 -.00000201  00000+0 -61291-3 0  9998
2 51628  87.8813  52.6314 0001537  81.7446 278.3856 13.10376248198558
ONEWEB-0428             
1 51629U 22012H   26085.92701861 -.00000614  00000+0 -17960-2 0  9992
2 51629  87.8800  52.6470 0001893  84.2239 275.9104 13.10372103198512
ONEWEB-0431             
1 51630U 22012J   26085.89702117  .00000682  00000+0  19159-2 0  9990
2 51630  87.8805  52.6398 0002550  77.7653 282.3760 13.10374025198566
ONEWEB-0434             
1 51631U 22012K   26085.95040496 -.00000031  00000+0 -12430-3 0  9999
2 51631  87.8807  52.6562 0001247  85.0107 275.1163 13.10376715198554
ONEWEB-0435             
1 51632U 22012L   26085.95857300  .00000308  00000+0  84679-3 0  9999
2 51632  87.8803  52.6449 0002157  90.3309 269.8065 13.10375461198546
ONEWEB-0436             
1 51633U 22012M   26085.89741253  .00000047  00000+0  89130-4 0  9990
2 51633  87.9185  22.1806 0002053  82.2468 277.8897 13.17648414202840
ONEWEB-0438             
1 51634U 22012N   26085.94195903 -.00000315  00000+0 -93862-3 0  9998
2 51634  87.8808  52.6494 0001726  80.8016 279.3307 13.10375930198572
