[
    {
      "OBJECT_NAME": "ONEWEB-0410",
      "OBJECT_ID": "2022-012A",
      "EPOCH": "2026-03-26T08:54:07.305696",
      "MEAN_MOTION": 13.1765131,
      "ECCENTRICITY": 0.00007018,
      "INCLINATION": 87.9185,
      "RA_OF_ASC_NODE": 22.2942,
      "ARG_OF_PERICENTER": 37.9086,
      "MEAN_ANOMALY": 322.2095,
      "EPHEMERIS_TYPE": 0,
      "CLASSIFICATION_TYPE": "U",
      "NORAD_CAT_ID": 51622,
      "ELEMENT_SET_NO": 999,
      "REV_AT_EPOCH": 20279,
      "BSTAR": 0.000037040162,
      "MEAN_MOTION_DOT": 2.7e-7,
      "MEAN_MOTION_DDOT": 0
    },
    {
      "OBJECT_NAME": "ONEWEB-0411",
      "OBJECT_ID": "2022-012B",
      "EPOCH": "2026-03-26T22:17:18.037536",
      "MEAN_MOTION": 13.10372292,
      "ECCENTRICITY": 0.00024044,
      "INCLINATION": 87.8806,
      "RA_OF_ASC_NODE": 52.6328,
      "ARG_OF_PERICENTER": 75.2112,
      "MEAN_ANOMALY": 284.9282,
      "EPHEMERIS_TYPE": 0,
      "CLASSIFICATION_TYPE": "U",
      "NORAD_CAT_ID": 51623,
      "ELEMENT_SET_NO": 999,
      "REV_AT_EPOCH": 19851,
      "BSTAR": -0.001815202,
      "MEAN_MOTION_DOT": -0.00000621,
      "MEAN_MOTION_DDOT": 0
    },
    {
      "OBJECT_NAME": "ONEWEB-0415",
      "OBJECT_ID": "2022-012C",
      "EPOCH": "2026-03-26T22:12:32.673024",
      "MEAN_MOTION": 13.10373606,
      "ECCENTRICITY": 0.00020754,
      "INCLINATION": 87.8801,
      "RA_OF_ASC_NODE": 52.6363,
      "ARG_OF_PERICENTER": 76.7109,
      "MEAN_ANOMALY": 283.425,
      "EPHEMERIS_TYPE": 0,
      "CLASSIFICATION_TYPE": "U",
      "NORAD_CAT_ID": 51624,
      "ELEMENT_SET_NO": 999,
      "REV_AT_EPOCH": 19851,
      "BSTAR": -0.0016530073,
      "MEAN_MOTION_DOT": -0.00000564,
      "MEAN_MOTION_DDOT": 0
    },
    {
      "OBJECT_NAME": "ONEWEB-0416",
      "OBJECT_ID": "2022-012D",
      "EPOCH": "2026-03-26T22:29:15.126432",
      "MEAN_MOTION": 13.10374309,
      "ECCENTRICITY": 0.00020184,
      "INCLINATION": 87.8799,
      "RA_OF_ASC_NODE": 52.6546,
      "ARG_OF_PERICENTER": 69.4521,
      "MEAN_ANOMALY": 290.6823,
      "EPHEMERIS_TYPE": 0,
      "CLASSIFICATION_TYPE": "U",
      "NORAD_CAT_ID": 51625,
      "ELEMENT_SET_NO": 999,
      "REV_AT_EPOCH": 19855,
      "BSTAR": -0.001495047,
      "MEAN_MOTION_DOT": -0.00000509,
      "MEAN_MOTION_DDOT": 0
    },
    {
      "OBJECT_NAME": "ONEWEB-0422",
      "OBJECT_ID": "2022-012E",
      "EPOCH": "2026-03-26T09:08:42.726912",
      "MEAN_MOTION": 13.17650522,
      "ECCENTRICITY": 0.00022938,
      "INCLINATION": 87.9184,
      "RA_OF_ASC_NODE": 22.2951,
      "ARG_OF_PERICENTER": 92.8124,
      "MEAN_ANOMALY": 267.327,
      "EPHEMERIS_TYPE": 0,
      "CLASSIFICATION_TYPE": "U",
      "NORAD_CAT_ID": 51626,
      "ELEMENT_SET_NO": 999,
      "REV_AT_EPOCH": 20290,
      "BSTAR": 0.00011053974,
      "MEAN_MOTION_DOT": 5.6e-7,
      "MEAN_MOTION_DDOT": 0
    },
    {
      "OBJECT_NAME": "ONEWEB-0423",
      "OBJECT_ID": "2022-012F",
      "EPOCH": "2026-03-26T08:58:59.513088",
      "MEAN_MOTION": 13.17649586,
      "ECCENTRICITY": 0.00018615,
      "INCLINATION": 87.918,
      "RA_OF_ASC_NODE": 22.3057,
      "ARG_OF_PERICENTER": 82.4571,
      "MEAN_ANOMALY": 277.6772,
      "EPHEMERIS_TYPE": 0,
      "CLASSIFICATION_TYPE": "U",
      "NORAD_CAT_ID": 51627,
      "ELEMENT_SET_NO": 999,
      "REV_AT_EPOCH": 20279,
      "BSTAR": 0.0001442469,
      "MEAN_MOTION_DOT": 6.9e-7,
      "MEAN_MOTION_DDOT": 0
    },
    {
      "OBJECT_NAME": "ONEWEB-0425",
      "OBJECT_ID": "2022-012G",
      "EPOCH": "2026-03-26T22:43:36.052320",
      "MEAN_MOTION": 13.10376248,
      "ECCENTRICITY": 0.00015377,
      "INCLINATION": 87.8813,
      "RA_OF_ASC_NODE": 52.6314,
      "ARG_OF_PERICENTER": 81.7446,
      "MEAN_ANOMALY": 278.3856,
      "EPHEMERIS_TYPE": 0,
      "CLASSIFICATION_TYPE": "U",
      "NORAD_CAT_ID": 51628,
      "ELEMENT_SET_NO": 999,
      "REV_AT_EPOCH": 19855,
      "BSTAR": -0.0006129119,
      "MEAN_MOTION_DOT": -0.00000201,
      "MEAN_MOTION_DDOT": 0
    },
    {
      "OBJECT_NAME": "ONEWEB-0428",
      "OBJECT_ID": "2022-012H",
      "EPOCH": "2026-03-26T22:14:54.407904",
      "MEAN_MOTION": 13.10372103,
      "ECCENTRICITY": 0.00018936,
      "INCLINATION": 87.88,
      "RA_OF_ASC_NODE": 52.647,
      "ARG_OF_PERICENTER": 84.2239,
      "MEAN_ANOMALY": 275.9104,
      "EPHEMERIS_TYPE": 0,
      "CLASSIFICATION_TYPE": "U",
      "NORAD_CAT_ID": 51629,
      "ELEMENT_SET_NO": 999,
      "REV_AT_EPOCH": 19851,
      "BSTAR": -0.0017959715,
      "MEAN_MOTION_DOT": -0.00000614,
      "MEAN_MOTION_DDOT": 0
    },
    {
      "OBJECT_NAME": "ONEWEB-0431",
      "OBJECT_ID": "2022-012J",
      "EPOCH": "2026-03-26T21:31:42.629088",
      "MEAN_MOTION": 13.10374025,
      "ECCENTRICITY": 0.00025504,
      "INCLINATION": 87.8805,
      "RA_OF_ASC_NODE": 52.6398,
      "ARG_OF_PERICENTER": 77.7653,
      "MEAN_ANOMALY": 282.376,
      "EPHEMERIS_TYPE": 0,
      "CLASSIFICATION_TYPE": "U",
      "NORAD_CAT_ID": 51630,
      "ELEMENT_SET_NO": 999,
      "REV_AT_EPOCH": 19856,
      "BSTAR": 0.0019159283,
      "MEAN_MOTION_DOT": 0.00000682,
      "MEAN_MOTION_DDOT": 0
    },
    {
      "OBJECT_NAME": "ONEWEB-0434",
      "OBJECT_ID": "2022-012K",
      "EPOCH": "2026-03-26T22:48:34.988544",
      "MEAN_MOTION": 13.10376715,
      "ECCENTRICITY": 0.00012473,
      "INCLINATION": 87.8807,
      "RA_OF_ASC_NODE": 52.6562,
      "ARG_OF_PERICENTER": 85.0107,
      "MEAN_ANOMALY": 275.1163,
      "EPHEMERIS_TYPE": 0,
      "CLASSIFICATION_TYPE": "U",
      "NORAD_CAT_ID": 51631,
      "ELEMENT_SET_NO": 999,
      "REV_AT_EPOCH": 19855,
      "BSTAR": -0.00012430197,
      "MEAN_MOTION_DOT": -3.1e-7,
      "MEAN_MOTION_DDOT": 0
    },
    {
      "OBJECT_NAME": "ONEWEB-0435",
      "OBJECT_ID": "2022-012L",
      "EPOCH": "2026-03-26T23:00:20.707200",
      "MEAN_MOTION": 13.10375461,
      "ECCENTRICITY": 0.0002157,
      "INCLINATION": 87.8803,
      "RA_OF_ASC_NODE": 52.6449,
      "ARG_OF_PERICENTER": 90.3309,
      "MEAN_ANOMALY": 269.8065,
      "EPHEMERIS_TYPE": 0,
      "CLASSIFICATION_TYPE": "U",
      "NORAD_CAT_ID": 51632,
      "ELEMENT_SET_NO": 999,
      "REV_AT_EPOCH": 19854,
      "BSTAR": 0.00084678533,
      "MEAN_MOTION_DOT": 0.00000308,
      "MEAN_MOTION_DDOT": 0
    },
    {
      "OBJECT_NAME": "ONEWEB-0436",
      "OBJECT_ID": "2022-012M",
      "EPOCH": "2026-03-26T21:32:16.442592",
      "MEAN_MOTION": 13.17648414,
      "ECCENTRICITY": 0.00020533,
      "INCLINATION": 87.9185,
      "RA_OF_ASC_NODE": 22.1806,
      "ARG_OF_PERICENTER": 82.2468,
      "MEAN_ANOMALY": 277.8897,
      "EPHEMERIS_TYPE": 0,
      "CLASSIFICATION_TYPE": "U",
      "NORAD_CAT_ID": 51633,
      "ELEMENT_SET_NO": 999,
      "REV_AT_EPOCH": 20284,
      "BSTAR": 0.000089130227,
      "MEAN_MOTION_DOT": 4.7e-7,
      "MEAN_MOTION_DDOT": 0
    },
    {
      "OBJECT_NAME": "ONEWEB-0438",
      "OBJECT_ID": "2022-012N",
      "EPOCH": "2026-03-26T22:36:25.260192",
      "MEAN_MOTION": 13.1037593,
      "ECCENTRICITY": 0.00017268,
      "INCLINATION": 87.8808,
      "RA_OF_ASC_NODE": 52.6494,
      "ARG_OF_PERICENTER": 80.8016,
      "MEAN_ANOMALY": 279.3307,
      "EPHEMERIS_TYPE": 0,
      "CLASSIFICATION_TYPE": "U",
      "NORAD_CAT_ID": 51634,
      "ELEMENT_SET_NO": 999,
      "REV_AT_EPOCH": 19857,
      "BSTAR": -0.00093862052,
      "MEAN_MOTION_DOT": -0.00000315,
      "MEAN_MOTION_DDOT": 0
    }
  ]
